0 COSMOS 2251 DEB
1 36076U 93036AYP 13276.20541885  .00004597  00000-0  13231-2 0  2175
2 36076 073.8332 104.3603 0064443 129.6540 231.0287 14.43837931215616
0 COSMOS 2251 DEB
1 36076U 93036AYP 13277.17544464  .00004800  00000-0  13745-2 0  2186
2 36076 073.8720 102.4932 0069918 141.4673 219.5083 14.43855351215758
0 COSMOS 2251 DEB
1 36076U 93036AYP 13279.18468632  .00005091  00000-0  14661-2 0  2193
2 36076 073.8268 098.7920 0061826 116.0930 244.2542 14.43873518216046
0 COSMOS 2251 DEB
1 36076U 93036AYP 13287.08305038  .00006158  00000-0  17603-2 0  2218
2 36076 073.8719 083.8933 0066928 122.6420 238.5342 14.43981295217183
0 COSMOS 2251 DEB
1 36076U 93036AYP 13288.12217981  .00006295  00000-0  18017-2 0  2226
2 36076 073.8416 081.9614 0065005 105.6151 254.9778 14.43994644217333
